E-KAGAKU-1              
1 65943U 98067XQ  26073.13413998  .00257198  00000+0  11873-2 0  9996
2 65943  51.6234  34.2893 0005612 104.4553 255.7072 15.82242031 24209
HRC MONOBLOCK CAMERA    
1 66052U 98067XR  26073.17745683  .00063248  00000+0  69077-3 0  9992
2 66052  51.6279  42.8744 0003809 114.1656 245.9737 15.62729008 23095
HTV-X1                  
1 66174U 25241A   26073.27861147  .00012774  00000+0  55021-3 0  9998
2 66174  51.6358  51.0221 0005740 187.2058 172.8838 15.22907645 21654
SZ-21 MODULE            
1 66515U 25246C   26072.57488950  .00042463  00000+0  36005-3 0  9990
2 66515  41.4731 179.4377 0001010 309.0341  51.0410 15.68874146 18689
SHENZHOU-22             
1 66645U 25272A   26073.00269975  .00029757  00000+0  34787-3 0  9992
2 66645  41.4663 181.9138 0006689 299.3968  60.6202 15.60904690267527
SOYUZ-MS 28             
1 66664U 25275A   26072.70791847  .00011780  00000+0  22432-3 0  9991
2 66664  51.6324  52.4887 0007884 189.2977 170.7866 15.48633802554521
DUPLEX                  
1 66906U 98067XS  26073.14499373  .00034521  00000+0  48198-3 0  9992
2 66906  51.6291  47.1609 0002672 131.0501 229.0722 15.56533878 15829
ISS OBJECT XT           
1 66907U 98067XT  26073.16571688  .00199468  00000+0  15370-2 0  9992
2 66907  51.6252  42.7793 0004685 110.2484 249.9018 15.70807733 15882
ISS OBJECT XU           
1 66908U 98067XU  26073.16354338  .00202744  00000+0  15526-2 0  9999
2 66908  51.6245  42.7614 0004947 112.0729 248.0794 15.70944877 15882
SILVERSAT               
1 66909U 98067XV  26073.15601561  .00277261  00000+0  18276-2 0  9993
2 66909  51.6244  41.9590 0005405 108.4786 251.6801 15.74242303 15897
ISS OBJECT XW           
1 66910U 98067XW  26073.16266227  .00179714  00000+0  14354-2 0  9999
2 66910  51.6241  42.7520 0005284 112.8313 247.3243 15.70008853 15885
ISS OBJECT XX           
1 66911U 98067XX  26073.14336125  .00326439  00000+0  18174-2 0  9995
2 66911  51.6205  41.1030 0006827 111.1555 249.0176 15.77941276 15896
